#dP2024 12  6  0  0  0.00000000      97 __u+U IGS20 FIT  IAC
## 2343 432000.00000000   900.00000000 60650 0.0000000000000
+  117   C06C07C08C09C10C11C12C13C14C16C19C20C21C22C23C24C25
+        C26C27C28C29C30C32C33C34C35C36C37C38C39C40C41C42C43
+        C44C45E02E03E04E05E06E07E08E09E10E11E12E13E14E15E18
+        E19E21E24E25E26E27E29E30E31E33E34E36G02G03G04G05G06
+        G08G09G10G11G12G13G14G15G16G17G18G19G20G21G22G23G24
+        G25G26G27G28G29G30G31G32J02J03J04R01R02R03R04R05R07
+        R08R09R11R12R14R15R16R17R18R19R20R21R22R24R26  0  0
++         7  8  7  7  8  7  6  7  7  7  6  6  5  6  6  5  6
++         5  5  6  6  6  6  6  6  6  5  6  6  6  6  6  6  6
++         5  6  4  4  4  4  4  4  4  4  4  4  4  4  4  4  4
++         4  4  4  4  4  4  4  4  4  4  4  4  3  3  3  4  3
++         3  3  3  3  3  3  3  3  4  3  3  3  4  3  3  3  3
++         3  4  4  3  3  3  4  3 10 11 10  7  7  7  6  7  7
++         6  6  7  7  7  6  6  7  7  8  7  6  7  7  7  0  0
%c M  cc GPS ccc cccc cccc cccc cccc ccccc ccccc ccccc ccccc
%c cc cc ccc ccc cccc cccc cccc cccc ccccc ccccc ccccc ccccc
%f  1.2500000  1.025000000  0.00000000000  0.000000000000000
%f  0.0000000  0.000000000  0.00000000000  0.000000000000000
%i    0    0    0    0      0      0      0      0         0
%i    0    0    0    0      0      0      0      0         0
/* INFORMATION & ANALYSIS CENTER (IAC)            FINAL DATA
/* S/V CLOCKS ARE ALIGNED TO GNSS TIME                      
/* G:C1WC2W R:C1PC2P E:C1XC5X C:C2IC6I J:C1CC2S             
/* PCV:IGS20_2317 OL/AL:FES2004  NONE     YN ORB:CoN CLK:CoN
*  2024 12 06  7 45  0.00000000
PC06 -17470.598121  28161.088808  25981.434570    515.701786
PC07  -6715.099203  40549.159263  10072.051009   -146.036991
PC08   -838.947322  22544.717545 -35580.107513   -881.786178
PC09  -9394.897369  27311.921857  30990.813400   -738.211299
PC10  -1219.410530  42287.219778   4226.640707   -320.735961
PC11 -21381.600410  16296.324851   7570.036655    276.135831
PC12 -18299.114258   -584.027760  21107.743993   -239.027014
PC13   4795.112063  25753.641523 -32760.736137     81.977921
PC14 -12712.801578   9842.927025 -22809.299574   -509.708626
PC16 -20440.871173  27685.718005  24425.924769     46.780630
PC19   7014.238700 -18694.965365  19505.005770   -969.954109
PC20  15900.627404  -1159.497036  22910.377410   -895.671134
PC21 -16012.121230 -19000.672357 -12674.556948   -910.592273
PC22  -6498.841502 -26728.849216   4633.808555    198.420058
PC23   4245.891813  16775.867313  21885.647042   -907.839441
PC24 -27386.874116   -641.700018   5375.788795    741.509451
PC25 -16198.021537  11817.497821  19402.047722    580.537063
PC26 -22650.344018 -11636.299261 -11482.346891   -387.282240
PC27  12855.256582   9703.760776 -22803.282983    405.922319
PC28  -1018.851854  21174.292833 -18138.246965    316.576895
PC29  16934.293661 -22180.879155    164.293002    371.667273
PC30  20980.259014  -7915.913650 -16627.727117     45.818608
PC32  16152.382221  18976.931399  12578.851720   -829.199599
PC33  -6953.319281  18692.950639 -19525.045904   -948.134074
PC34 -21217.151471   9589.384620  15361.002221    579.556503
PC35    856.358916 -21622.321311  17629.250042    189.144631
PC36  16052.243721 -11664.964154 -19603.327861    233.038635
PC37  22131.644348  12270.251528  11729.775916   -895.293359
PC38  -7962.390262  21229.325850 -35484.519164    195.433143
PC39 -23983.455696  28350.417363  19758.282632    -10.508886
PC40 -11853.843390  38734.515924  12300.359549   -106.695864
PC41   5981.536741  26686.088191  -5537.370613   -886.061269
PC42 -16457.893975   -901.773160 -22476.089015   -531.907525
PC43 -17443.938548  21754.068252    787.006641     94.406632
PC44 -13213.208680  -9437.261997  22684.139199    673.150082
PC45  -3587.372660 -16670.727080 -22106.595021   -181.783138
PE02  -5845.165445 -23144.162219 -17525.260223    180.180533
PE03   3387.052176 -28817.611534  -5844.411967   -158.087849
PE04  10368.776422  18066.737185  21029.973910    -99.927769
PE05  14849.556415 -22378.509266  12443.851100   4807.886566
PE06  15362.013992   8053.191631  23967.017783    -55.438023
PE07 -17654.836449   2472.913626 -23632.309898   -156.670253
PE08  -9807.043219 -18697.942959 -20749.985897   -379.417083
PE09  17507.749369  -2407.192455  23738.951282   -689.702953
PE10  24877.411653   3699.514103 -15598.080374   -674.590635
PE11  28742.292335  -3509.102292  -6168.923144    409.538833
PE12  17995.789674   9580.900017 -21459.771959  -1327.581850
PE13 -28646.684966   3137.808220   6763.333438    -27.603918
PE14 -13572.465892  26602.190295   8227.490733    444.064455
PE15 -17276.267517  -9951.692211  21891.312179   -143.321744
PE18  15435.567662 -15528.542792 -13000.999909    852.579913
PE19  -4830.593873  28903.024563   4162.692309   1042.051627
PE21 -11986.942799  11849.713303  24327.271990   -632.474279
PE24  23315.490242   6783.060081 -16929.841171  -1139.396001
PE25  12353.475267 -11480.340151 -24325.924723     11.970458
PE26 -22708.731772  14409.484701 -12353.206322   -191.269755
PE27 -23312.376735  -6753.738130  16950.463306   -522.469698
PE29 -14836.026328  22580.083818 -12081.720107    -51.395340
PE30 -20733.282321 -21138.404493   -226.011058   -999.640814
PE31  20732.078087  21118.144406    323.166497    -45.574004
PE33  -4540.928730  17019.812053 -23777.349929     16.304809
PE34   4008.456002 -16987.980365  23909.538487   -150.070050
PE36  23076.522999 -14136.143040  12010.321991   -321.008641
PG02  -3262.234824  16590.544650 -19915.061229   -298.465045
PG03   8664.392230  20420.640310 -14853.340515    617.873831
PG04    374.118641  25127.654619   8371.249105    491.294832
PG05   6029.719600 -13901.728490  21631.652922   -195.165652
PG06  25616.168861  -5020.175359  -5166.978000    -22.894015
PG08  -6046.760624  25383.445186   3285.824339    431.703343
PG09   7787.652628  20044.742832  15450.471059    475.043793
PG10 -22052.866696  -8012.096322 -12543.057791   -223.287048
PG11  22104.454613 -12406.103405   7863.390963   -752.230945
PG12  -3613.211649 -20250.294307 -17117.359905   -556.614954
PG13  13559.630302 -20659.084725   9175.115414    688.890123
PG14  22449.933089  10954.254377  -9317.368169    554.501557
PG15   2334.233231 -26221.320616   2340.432364    236.235197
PG16 -12081.762478   9135.201490  21486.315703   -110.345442
PG17  14291.251978   4261.056756 -21559.985385    530.671534
PG18 -16279.707036  -8410.840033  19340.708367   -660.538631
PG19  16289.517310  -6271.826377 -20028.589576    570.839475
PG20  16558.055888  -6503.458080  19761.033295    368.129950
PG21  -9362.697264  17346.810071 -16857.035325     95.679189
PG22  20306.943508   4890.700675 -15830.795741    -84.490321
PG23 -20627.656212 -16930.784638    314.815558    377.835170
PG24   4643.848381 -17997.928377 -19295.852100   -475.619076
PG25 -16129.197513 -20067.054157  -7424.614018    498.392579
PG26 -20323.074566   1141.014398  17079.341378      1.327205
PG27 -12472.037408  19146.654584  12860.338843    -34.395323
PG28 -25162.473274   4322.594085  -7347.805845   -500.148210
PG29  -5679.046690 -20625.010046  15620.881481   -558.209400
PG30  23188.216986   2028.798269  13185.797626   -267.230816
PG31 -24586.371998  10145.180144   2697.057132   -220.497891
PG32 -15179.431134   -147.031784 -21559.624150   -563.393574
PJ02 -26443.566838  22570.857817  29067.755470      0.146118
PJ03 -34768.590869  21147.447085  -6105.458492     -8.378967
PJ04 -19686.794750  28511.713358 -19075.587700     21.465330
PR01 -10899.369766 -17427.728662 -15102.263898    106.802099
PR02 -10911.950221   -634.667703 -23008.463519    -39.268472
PR03  -5374.887624  17369.737046 -17812.939896    112.706252
PR04   2701.743050  25158.212020  -3109.391501    267.184415
PR05   9373.982407  19644.752587  13282.977797    141.776110
PR07   5232.851035 -17757.312985  17617.170778     96.398124
PR08  -2997.483473 -25186.935967   2975.240640     -6.159839
PR09  23845.120175   3252.084732  -8564.313409    224.611123
PR11  -3183.171802 -12259.632683 -22131.766857      5.360533
PR12 -20546.747499 -12014.096791  -9175.180128     48.072416
PR14 -13114.210142   6242.381043  20970.013318     27.365361
PR15   4977.727837  12784.735939  21518.135372     73.431365
PR16  20504.710468  11955.872226   9391.553158     31.392326
PR17 -18355.607454  17374.982135  -3591.832766    146.088322
PR18  -7505.685745  16508.009170 -17893.303165    175.391743
PR19   5412.406248   8975.706110 -23246.980706   -300.932551
PR20  19917.963531  -6966.203441 -14343.718785   -122.853764
PR21  18920.343615 -16896.111751   2543.947147   -157.211704
PR22   6581.820664 -16240.037249  18572.860551    -32.469300
PR24 -19878.274989   8017.229515  13868.621171    -82.949065
PR26  -2278.876467 -24954.241837   4748.772272   -132.995903
EOF
